SAUDISAT 2              
1 28371U 04025F   26131.76079648  .00000170  00000+0  48892-4 0  9994
2 28371  98.5510 130.8028 0025672  50.6250 309.7215 14.56660998160449
COSMOS 2407             
1 28380U 04028A   26131.86395617  .00000060  00000+0  45390-4 0  9993
2 28380  82.9580 101.7356 0039187 356.2041  72.4022 13.76331536 94881
COSMOS 2414             
1 28521U 05002A   26131.84250431  .00000067  00000+0  42522-4 0  9996
2 28521  82.9497  71.1351 0041564  73.5087 287.0637 13.87922718 78777
INMARSAT 4-F1           
1 28628U 05009A   26131.58786544  .00000045  00000+0  00000+0 0  9997
2 28628   5.1187  42.6761 0002861  11.0012 205.4668  1.00272457 77304
SJ-7                    
1 28737U 05024A   26131.51822925  .00004492  00000+0  20535-3 0  9991
2 28737  97.7317 160.6479 0016818 154.5778 205.6287 15.20976590142457
CUBESAT XI-V            
1 28895U 05043F   26131.37052593  .00000850  00000+0  14206-3 0  9999
2 28895  98.2945 286.2304 0013240 326.6866  33.3506 14.72532793 96337
HINODE (SOLAR-B)        
1 29479U 06041A   26131.80229824  .00000421  00000+0  80755-4 0  9995
2 29479  98.0565 148.4903 0018511  47.2209 313.0549 14.68569147 49532
SHIJIAN-6 02B (SJ-6 02B)
1 29506U 06046B   26131.82240671  .00001140  00000+0  93274-4 0  9995
2 29506  97.7159 161.1068 0011487 178.8610 181.2642 15.01270412 65285
DMSP 5D-3 F17 (USA 191) 
1 29522U 06050A   26131.82397080  .00000032  00000+0  38820-4 0  9990
2 29522  98.7388 139.1374 0010562 153.6635 206.5078 14.14986652  7287
LAPAN-TUBSAT            
1 29709U 07001A   26131.82400722  .00000745  00000+0  91989-4 0  9998
2 29709  98.1350 130.2305 0011007 309.2032  50.8204 14.85914715 45752
HAIYANG-1B              
1 31113U 07010A   26131.85613676  .00000053  00000+0  35871-4 0  9997
2 31113  98.3483 115.1139 0012594 313.2584  46.7548 14.31017744995430
COSMO-SKYMED 2          
1 32376U 07059A   26131.84038714  .00000251  00000+0  38067-4 0  9995
2 32376  97.8886 315.9658 0001454  89.9417 270.1962 14.82155237996614
CARTOSAT-2A             
1 32783U 08021A   26131.85643578  .00000291  00000+0  45894-4 0  9998
2 32783  97.7664 181.8009 0010568 224.9545 135.0812 14.79187511973432
CUTE-1.7+APD II (CO-65) 
1 32785U 08021C   26131.85062080  .00002616  00000+0  16909-3 0  9990
2 32785  97.8260 112.5287 0009974 143.3752 216.8159 15.09100100979711
SEEDS II (CO-66)        
1 32791U 08021J   26130.97235940  .00011027  00000+0  36525-3 0  9998
2 32791  97.7530 127.1344 0005072  88.5832 271.5989 15.31474077981597
YUBILEINY (RS30)        
1 32953U 08025A   26131.80285584 -.00000067  00000+0 -54996-3 0  9990
2 32953  82.5070  18.0724 0020364  32.8799 327.3543 12.43177734815179
FENGYUN 3A              
1 32958U 08026A   26131.81865726  .00000031  00000+0  35095-4 0  9998
2 32958  98.6870  73.3360 0007780 228.3701 131.6810 14.19563303930247
HUANJING 1A (HJ-1A)     
1 33320U 08041A   26131.88918072  .00000025  00000+0  92126-5 0  9991
2 33320  97.6677 119.1370 0017349 257.3668 102.5607 14.83902933953020
HUANJING 1B (HJ-1B)     
1 33321U 08041B   26131.90959847  .00000012  00000+0  78641-5 0  9992
2 33321  97.6516 122.4366 0035140 304.2580  55.5308 14.83251623953038
SHIJIAN-6 03A (SJ-6 03A)
1 33408U 08053A   26131.83540280  .00002460  00000+0  12873-3 0  9992
2 33408  97.8444 163.8986 0012599 132.6923 227.5373 15.16792672957454
SHIJIAN-6 03B (SJ-6 03B)
1 33409U 08053B   26131.84656704  .00000650  00000+0  51296-4 0  9995
2 33409  97.8611 151.1363 0019905 158.5278 201.6786 15.04206940957285
CHUANGXIN 1-02 (CX-1-02)
1 33434U 08056B   26131.84692049 -.00000190  00000+0 -56517-4 0  9990
2 33434  98.6165 158.4723 0013077 245.4279 114.5540 14.30144485913428
