OBJECT_NAME,OBJECT_ID,EPOCH,MEAN_MOTION,ECCENTRICITY,INCLINATION,RA_OF_ASC_NODE,ARG_OF_PERICENTER,MEAN_ANOMALY,EPHEMERIS_TYPE,CLASSIFICATION_TYPE,NORAD_CAT_ID,ELEMENT_SET_NO,REV_AT_EPOCH,BSTAR,MEAN_MOTION_DOT,MEAN_MOTION_DDOT
SAUDISAT 2,2004-025F,2026-05-11T18:15:32.815872,14.56660998,.0025672,98.5510,130.8028,50.6250,309.7215,0,U,28371,999,16044,.48892E-4,.17E-5,0
COSMOS 2407,2004-028A,2026-05-11T20:44:05.813088,13.76331536,.0039187,82.9580,101.7356,356.2041,72.4022,0,U,28380,999,9488,.4539E-4,.6E-6,0
COSMOS 2414,2005-002A,2026-05-11T20:13:12.372384,13.87922718,.0041564,82.9497,71.1351,73.5087,287.0637,0,U,28521,999,7877,.42522E-4,.67E-6,0
INMARSAT 4-F1,2005-009A,2026-05-11T14:06:31.574016,1.00272457,.0002861,5.1187,42.6761,11.0012,205.4668,0,U,28628,999,7730,0,.45E-6,0
SJ-7,2005-024A,2026-05-11T12:26:15.007200,15.20976590,.0016818,97.7317,160.6479,154.5778,205.6287,0,U,28737,999,14245,.20534603E-3,.4492E-4,0
CUBESAT XI-V,2005-043F,2026-05-11T08:53:33.440352,14.72532793,.00132409,98.2945,286.2304,326.6866,33.3506,0,U,28895,999,9633,.14206378E-3,.85E-5,0
HINODE (SOLAR-B),2006-041A,2026-05-11T19:15:18.567936,14.68569147,.0018511,98.0565,148.4903,47.2209,313.0549,0,U,29479,999,4953,.80755E-4,.421E-5,0
SHIJIAN-6 02B (SJ-6 02B),2006-046B,2026-05-11T19:44:15.939744,15.01270412,.0011487,97.7159,161.1068,178.8610,181.2642,0,U,29506,999,6528,.93274E-4,.114E-4,0
DMSP 5D-3 F17 (USA 191),2006-050A,2026-05-11T19:46:31.077120,14.14986652,.0010562,98.7388,139.1374,153.6635,206.5078,0,U,29522,999,728,.3882E-4,.32E-6,0
LAPAN-TUBSAT,2007-001A,2026-05-11T19:46:34.223808,14.85914715,.0011007,98.1350,130.2305,309.2032,50.8204,0,U,29709,999,4575,.91989E-4,.745E-5,0
HAIYANG-1B,2007-010A,2026-05-11T20:32:50.216064,14.31017744,.0012594,98.3483,115.1139,313.2584,46.7548,0,U,31113,999,99543,.35871E-4,.53E-6,0
COSMO-SKYMED 2,2007-059A,2026-05-11T20:10:09.448896,14.82155237,.0001454,97.8886,315.9658,89.9417,270.1962,0,U,32376,999,99661,.38067E-4,.251E-5,0
CARTOSAT-2A,2008-021A,2026-05-11T20:33:16.051392,14.79187511,.0010568,97.7664,181.8009,224.9545,135.0812,0,U,32783,999,97343,.45894E-4,.291E-5,0
CUTE-1.7+APD II (CO-65),2008-021C,2026-05-11T20:24:53.637120,15.09100100,.0009974,97.8260,112.5287,143.3752,216.8159,0,U,32785,999,97971,.16909E-3,.2616E-4,0
SEEDS II (CO-66),2008-021J,2026-05-10T23:20:11.852160,15.31474077,.00050721,97.7530,127.1344,88.5832,271.5989,0,U,32791,999,98159,.36524846E-3,.11027E-3,0
YUBILEINY (RS30),2008-025A,2026-05-11T19:16:06.744576,12.43177734,.0020364,82.5070,18.0724,32.8799,327.3543,0,U,32953,999,81517,-.54996E-3,-.67E-6,0
FENGYUN 3A,2008-026A,2026-05-11T19:38:51.987264,14.19563303,.000778,98.6870,73.3360,228.3701,131.6810,0,U,32958,999,93024,.35095E-4,.31E-6,0
HUANJING 1A (HJ-1A),2008-041A,2026-05-11T21:20:25.214208,14.83902933,.0017349,97.6677,119.1370,257.3668,102.5607,0,U,33320,999,95302,.92126E-5,.25E-6,0
HUANJING 1B (HJ-1B),2008-041B,2026-05-11T21:49:49.307808,14.83251623,.003514,97.6516,122.4366,304.2580,55.5308,0,U,33321,999,95303,.78641E-5,.12E-6,0
SHIJIAN-6 03A (SJ-6 03A),2008-053A,2026-05-11T20:02:58.801920,15.16792672,.0012599,97.8444,163.8986,132.6923,227.5373,0,U,33408,999,95745,.12873E-3,.246E-4,0
SHIJIAN-6 03B (SJ-6 03B),2008-053B,2026-05-11T20:19:03.392256,15.04206940,.0019905,97.8611,151.1363,158.5278,201.6786,0,U,33409,999,95728,.51296E-4,.65E-5,0
CHUANGXIN 1-02 (CX-1-02),2008-056B,2026-05-11T20:19:33.930336,14.30144485,.0013077,98.6165,158.4723,245.4279,114.5540,0,U,33434,999,91342,-.56517E-4,-.19E-5,0
